NORAD_CAT_ID,OBJECT_NAME,OBJECT_TYPE,EPOCH,MEAN_MOTION,ECCENTRICITY,INCLINATION,RA_OF_ASC_NODE,ARG_OF_PERICENTER,MEAN_ANOMALY,BSTAR,MEAN_MOTION_DOT,MEAN_MOTION_DDOT,TLE_LINE0,TLE_LINE1,TLE_LINE2,SEMIMAJOR_AXIS,PERIOD,APOGEE,PERIGEE,DECAYED
53413.0,STARLINK-4500,PAYLOAD,2022-08-27 14:00:01,15.7329484,0.0001078,53.2189,161.9866,82.5239,185.4498,-0.001375,-0.0019006,0.0,0 STARLINK-4500,1 53413U 22097AB  22239.58334491 -.00190060  00000-0 -13750-2 0  9997,2 53413  53.2189 161.9866 0001078  82.5239 185.4498 15.73294840  1304,6727.625,91.528,350.215,348.765,0.0
53413.0,STARLINK-4500,PAYLOAD,2022-08-27 20:00:01,15.73198079,0.0001060999999999,53.2201,160.7522,83.6015,161.1037,0.00020061,0.00027624,0.0,0 STARLINK-4500,1 53413U 22097AB  22239.83334491  .00027624  00000-0  20061-3 0  9992,2 53413  53.2201 160.7522 0001061  83.6015 161.1037 15.73198079  3209,6727.901,91.533,350.47900000000016,349.052,0.0
53413.0,STARLINK-4500,PAYLOAD,2022-08-27 22:00:00,15.73215065,0.0001059,53.2201,160.3404,78.2156,278.7181,-1.2651e-05,-2.396e-05,0.0,0 STARLINK-4500,1 53413U 22097AB  22239.91667824 -.00002396  00000-0 -12651-4 0  9998,2 53413  53.2201 160.3404 0001059  78.2156 278.7181 15.73215065  1306,6727.852,91.532,350.43,349.005,0.0
53413.0,STARLINK-4500,PAYLOAD,2022-08-28 14:00:01,15.73173596,0.0001155999999999,53.2196,157.0412,82.0516,92.7597,0.00050281,0.00070459,0.0,0 STARLINK-4500,1 53413U 22097AB  22240.58334491  .00070459  00000-0  50281-3 0  9997,2 53413  53.2196 157.0412 0001156  82.0516  92.7597 15.73173596  3323,6727.97,91.535,350.61300000000006,349.05800000000005,0.0
53413.0,STARLINK-4500,PAYLOAD,2022-08-28 22:00:00,15.73264366,0.0001135,53.2197,155.3929,82.0504,181.6736,-0.00065683,-0.0009205,0.0,0 STARLINK-4500,1 53413U 22097AB  22240.91667824 -.00092050  00000-0 -65683-3 0  9998,2 53413  53.2197 155.3929 0001135  82.0504 181.6736 15.73264366  1307,6727.712,91.529,350.34,348.81300000000016,0.0
53413.0,STARLINK-4500,PAYLOAD,2022-08-29 06:00:02,15.73196084,0.0001094999999999,53.2193,153.7446,67.4305,285.3252,-0.00023484,-0.0003344,0.0,0 STARLINK-4500,1 53413U 22097AB  22241.25002315 -.00033440  00000-0 -23484-3 0  9995,2 53413  53.2193 153.7446 0001095  67.4305 285.3252 15.73196084  3421,6727.906,91.533,350.5080000000001,349.035,0.0
53413.0,STARLINK-4500,PAYLOAD,2022-08-29 14:00:01,15.73117325,0.0001161999999999,53.2197,152.0931,85.0342,356.5856,0.000531,0.00074299,0.0,0 STARLINK-4500,1 53413U 22097AB  22241.58334491  .00074299  00000-0  53100-3 0  9997,2 53413  53.2197 152.0931 0001162  85.0342 356.5856 15.73117325  1305,6728.130999999999,91.538,350.778,349.214,0.0
53413.0,STARLINK-4500,PAYLOAD,2022-08-29 22:00:00,15.73181484,0.0001262999999999,53.2199,150.4448,80.4192,90.0541,7.7814e-05,0.00010306,0.0,0 STARLINK-4500,1 53413U 22097AB  22241.91667824  .00010306  00000-0  77814-4 0  9991,2 53413  53.2199 150.4448 0001263  80.4192  90.0541 15.73181484  1304,6727.948,91.534,350.663,348.963,0.0
53413.0,STARLINK-4500,PAYLOAD,2022-08-30 06:00:00,15.73179733,0.0001250999999999,53.2194,148.7965,71.4882,187.8904,0.0004596999999999,0.00064335,0.0,0 STARLINK-4500,1 53413U 22097AB  22242.25001157  .00064335  00000-0  45970-3 0  9998,2 53413  53.2194 148.7965 0001251  71.4882 187.8904 15.73179733  3580,6727.953,91.534,350.66,348.976,0.0
53413.0,STARLINK-4500,PAYLOAD,2022-08-30 14:00:01,15.73223583,0.0001264999999999,53.2193,147.1452,84.102,264.2065,-0.00013481,-0.00019515,0.0,0 STARLINK-4500,1 53413U 22097AB  22242.58334491 -.00019515  00000-0 -13481-3 0  9998,2 53413  53.2193 147.1452 0001265  84.1020 264.2065 15.73223583  1302,6727.828,91.532,350.5440000000001,348.842,0.0
53413.0,STARLINK-4500,PAYLOAD,2022-08-30 22:00:00,15.73198188,0.0001494,53.2192,145.497,82.8837,354.3746,-0.00012345,-0.00017907,0.0,0 STARLINK-4500,1 53413U 22097AB  22242.91667824 -.00017907  00000-0 -12345-3 0  9995,2 53413  53.2192 145.4970 0001494  82.8837 354.3746 15.73198188  3695,6727.9,91.533,350.77,348.76,0.0
53413.0,STARLINK-4500,PAYLOAD,2022-08-31 14:00:01,15.73229829,0.0001266,53.2191,142.1968,88.3123,166.8059,-0.00011303,-0.00016472,0.0,0 STARLINK-4500,1 53413U 22097AB  22243.58334491 -.00016472  00000-0 -11303-3 0  9999,2 53413  53.2191 142.1968 0001266  88.3123 166.8059 15.73229829  3792,6727.81,91.531,350.527,348.8230000000001,0.0
53413.0,STARLINK-4500,PAYLOAD,2022-08-31 22:00:00,15.73192714,0.0001198,53.2193,140.5486,80.3432,263.7307,-2.0828e-05,-3.54e-05,0.0,0 STARLINK-4500,1 53413U 22097AB  22243.91667824 -.00003540  00000-0 -20828-4 0  9990,2 53413  53.2193 140.5486 0001198  80.3432 263.7307 15.73192714  1300,6727.916,91.534,350.587,348.975,0.0
53413.0,STARLINK-4500,PAYLOAD,2022-09-01 14:00:01,15.73238011,9.38e-05,53.2188,137.2484,86.6527,75.3638,-0.00026676,-0.00037948,0.0,0 STARLINK-4500,1 53413U 22097AB  22244.58335648 -.00037948  00000-0 -26676-3 0  9995,2 53413  53.2188 137.2484 0000938  86.6527  75.3638 15.73238011  1305,6727.7869999999975,91.531,350.283,349.021,0.0
53413.0,STARLINK-4500,PAYLOAD,2022-09-01 22:00:00,15.73198837,8.39e-05,53.2188,135.6007,76.3403,174.5724,7.2012e-05,9.498e-05,0.0,0 STARLINK-4500,1 53413U 22097AB  22244.91667824  .00009498  00000-0  72012-4 0  9999,2 53413  53.2188 135.6007 0000839  76.3403 174.5724 15.73198837  1306,6727.898,91.533,350.32800000000015,349.199,0.0
53413.0,STARLINK-4500,PAYLOAD,2022-09-02 06:00:00,15.73233947,8.35e-05,53.2185,133.9516,66.5951,273.2397,-9.5459e-05,-0.00014013,0.0,0 STARLINK-4500,1 53413U 22097AB  22245.25001157 -.00014013  00000-0 -95459-4 0  9999,2 53413  53.2185 133.9516 0000835  66.5951 273.2397 15.73233947  4054,6727.7980000000025,91.531,350.225,349.102,0.0
53413.0,STARLINK-4500,PAYLOAD,2022-09-02 14:00:01,15.73167734,8.809999999999999e-05,53.2189,132.3,87.5528,341.2574,0.00034901,0.00048577,0.0,0 STARLINK-4500,1 53413U 22097AB  22245.58334491  .00048577  00000-0  34901-3 0  9999,2 53413  53.2189 132.3000 0000881  87.5528 341.2574 15.73167734  1301,6727.986999999999,91.535,350.445,349.259,0.0
53413.0,STARLINK-4500,PAYLOAD,2022-09-02 22:00:01,15.732319400000002,9.42e-05,53.2191,130.6522,75.5201,82.2621,-0.00070058,-0.00097934,0.0,0 STARLINK-4500,1 53413U 22097AB  22245.91668981 -.00097934  00000-0 -70058-3 0  9996,2 53413  53.2191 130.6522 0000942  75.5201  82.2621 15.73231940  1303,6727.804,91.531,350.30300000000005,349.035,0.0
53413.0,STARLINK-4500,PAYLOAD,2022-09-03 00:00:00,15.73211429,9.48e-05,53.2191,130.2404,71.62100000000002,198.3405,-0.00047278,-0.00066478,0.0,0 STARLINK-4500,1 53413U 22097AB  22246.00001157 -.00066478  00000-0 -47278-3 0  9990,2 53413  53.2191 130.2404 0000948  71.6210 198.3405 15.73211429  4178,6727.863,91.533,350.365,349.09,0.0
53413.0,STARLINK-4500,PAYLOAD,2022-09-03 14:00:01,15.73179016,6.929999999999999e-05,53.219,127.3519,84.8881,250.6852,0.00067809,0.00095547,0.0,0 STARLINK-4500,1 53413U 22097AB  22246.58334491  .00095547  00000-0  67809-3 0  9992,2 53413  53.2190 127.3519 0000693  84.8881 250.6852 15.73179016  1303,6727.955,91.534,350.286,349.35400000000016,0.0
53413.0,STARLINK-4500,PAYLOAD,2022-09-03 22:00:00,15.73279807,8.44e-05,53.2187,125.7045,71.3568,353.1543,-0.00081638,-0.00114035,0.0,0 STARLINK-4500,1 53413U 22097AB  22246.91667824 -.00114035  00000-0 -81638-3 0  9990,2 53413  53.2187 125.7045 0000844  71.3568 353.1543 15.73279807  4326,6727.668000000002,91.529,350.1,348.965,0.0
53413.0,STARLINK-4500,PAYLOAD,2022-09-04 06:00:00,15.73209641,9.63e-05,53.2188,124.055,72.044,81.4301,0.00014562,0.00019873,0.0,0 STARLINK-4500,1 53413U 22097AB  22247.25001157  .00019873  00000-0  14562-3 0  9993,2 53413  53.2188 124.0550 0000963  72.0440  81.4301 15.73209641  4376,6727.868,91.533,350.381,349.085,0.0
53413.0,STARLINK-4500,PAYLOAD,2022-09-04 14:00:01,15.73232913,0.000101,53.2191,122.4036,86.8595,155.6344,-0.00017163,-0.00024669,0.0,0 STARLINK-4500,1 53413U 22097AB  22247.58335648 -.00024669  00000-0 -17163-3 0  9995,2 53413  53.2191 122.4036 0001010  86.8595 155.6344 15.73232913  1308,6727.801,91.531,350.346,348.987,0.0
53413.0,STARLINK-4500,PAYLOAD,2022-09-04 20:00:01,15.73238988,0.0001079,53.2195,121.1681,81.0555,138.0903,-0.000565,-0.00079299,0.0,0 STARLINK-4500,1 53413U 22097AB  22247.83334491 -.00079299  00000-0 -56500-3 0  9995,2 53413  53.2195 121.1681 0001079  81.0555 138.0903 15.73238988  1306,6727.784000000002,91.531,350.375,348.923,0.0
53413.0,STARLINK-4500,PAYLOAD,2022-09-05 14:00:01,15.7321335,0.0001122,53.2194,117.4557,86.1205,63.2358,-0.00013897,-0.00020087,0.0,0 STARLINK-4500,1 53413U 22097AB  22248.58334491 -.00020087  00000-0 -13897-3 0  9991,2 53413  53.2194 117.4557 0001122  86.1205  63.2358 15.73213350  4584,6727.857,91.532,350.477,348.967,0.0
53413.0,STARLINK-4500,PAYLOAD,2022-09-05 22:00:00,15.73197244,0.0001217,53.2193,115.8087,74.4989,163.7953,-0.00039345,-0.00055467,0.0,0 STARLINK-4500,1 53413U 22097AB  22248.91667824 -.00055467  00000-0 -39345-3 0  9993,2 53413  53.2193 115.8087 0001217  74.4989 163.7953 15.73197244  1304,6727.903,91.533,350.587,348.949,0.0
53413.0,STARLINK-4500,PAYLOAD,2022-09-06 06:00:00,15.73155309,9.45e-05,53.2188,114.1589,72.0415,255.0785,-0.00017693,-0.00025327,0.0,0 STARLINK-4500,1 53413U 22097AB  22249.25001157 -.00025327  00000-0 -17693-3 0  9996,2 53413  53.2188 114.1589 0000945  72.0415 255.0785 15.73155309  4680,6728.023,91.536,350.523,349.25199999999984,0.0
53413.0,STARLINK-4500,PAYLOAD,2022-09-06 14:00:01,15.73111694,7.97e-05,53.2185,112.5081,87.6758,328.3179,0.00018765,0.00025697,0.0,0 STARLINK-4500,1 53413U 22097AB  22249.58334491  .00025697  00000-0  18765-3 0  9991,2 53413  53.2185 112.5081 0000797  87.6758 328.3179 15.73111694  1309,6728.147,91.538,350.548,349.476,0.0
53413.0,STARLINK-4500,PAYLOAD,2022-09-06 20:00:01,15.73146203,7.47e-05,53.2181,111.2728,71.535,321.0969,0.00012381,0.00016751,0.0,0 STARLINK-4500,1 53413U 22097AB  22249.83334491  .00016751  00000-0  12381-3 0  9998,2 53413  53.2181 111.2728 0000747  71.5350 321.0969 15.73146203  4779,6728.049,91.536,350.416,349.411,0.0
